OBJECT_NAME,OBJECT_ID,EPOCH,MEAN_MOTION,ECCENTRICITY,INCLINATION,RA_OF_ASC_NODE,ARG_OF_PERICENTER,MEAN_ANOMALY,EPHEMERIS_TYPE,CLASSIFICATION_TYPE,NORAD_CAT_ID,ELEMENT_SET_NO,REV_AT_EPOCH,BSTAR,MEAN_MOTION_DOT,MEAN_MOTION_DDOT
2022-023F,2022-023F,2026-07-19T07:02:57.269760,15.17879101,.01335638,63.4458,164.3377,341.6222,18.0087,0,U,51951,999,24258,.23846136E-3,.5876E-4,0
MERIDIAN 10,2022-030A,2026-07-18T20:55:38.142336,2.00608966,.67929461,62.6769,137.3726,272.8407,17.5942,0,U,52145,999,3166,0,.141E-5,0
OMNI-L1,2022-033A,2026-07-19T03:57:24.100128,14.82851996,.00056645,97.8388,278.7216,165.4447,194.6931,0,U,52157,999,23219,.10939542E-3,.834E-5,0
ENMAP,2022-033C,2026-07-19T06:05:15.152640,14.74941877,.00012385,97.9786,282.0466,84.5056,275.6294,0,U,52159,999,23138,.1863388E-4,.75E-6,0
ARCSAT-1,2022-033E,2026-07-19T04:38:01.001760,15.54338252,.0006308,97.2747,292.9590,86.5548,273.6427,0,U,52161,999,24067,.10679784E-3,.6893E-4,0
GLOBAL-18,2022-034B,2026-07-19T02:35:53.051424,15.47332521,.00046399,52.9812,103.9534,35.1635,324.9676,0,U,52196,999,24190,.2685832E-3,.13531E-3,0
GAOFEN-3 03,2022-035A,2026-07-19T06:46:29.622720,14.42218669,.00017741,98.4067,208.3977,86.2213,273.9180,0,U,52200,999,22547,.41795802E-4,.94E-6,0
DAQI-1,2022-039A,2026-07-19T06:28:55.465824,14.57694705,.00042585,98.1487,138.4601,136.9943,223.1589,0,U,52257,999,22661,.88231456E-4,.358E-5,0
BRO-6,2022-047AE,2026-07-19T04:31:15.198240,15.52776336,.00028548,97.3381,291.9097,286.6860,73.4079,0,U,52422,999,23611,.40926953E-3,.25263E-3,0
JILIN-1 GAOFEN 3D27,2022-048B,2026-07-19T06:33:08.859744,15.84137399,.00057173,97.5728,317.3399,234.8088,125.2646,0,U,52444,999,23454,.5571916E-3,.126312E-2,0
JILIN-1 GAOFEN 3D28,2022-048C,2026-07-19T06:04:38.807616,15.89582354,.00054984,97.5677,317.6499,238.1599,121.9139,0,U,52445,999,23460,.63539855E-3,.184558E-2,.14479931E-4
VIGORIDE-3,2022-057AE,2026-07-19T06:02:10.278240,15.27572209,.00085439,97.6647,341.0896,21.6548,338.5051,0,U,52760,999,23005,.10417551E-3,.2732E-4,0
ION SCV-006,2022-057AF,2026-07-18T22:51:00.389376,15.45972712,.00164308,97.6141,350.1211,4.0680,356.0699,0,U,52761,999,23102,.14066702E-3,.679E-4,0
SHERPA-AC1,2022-057AH,2026-07-19T04:10:26.500512,15.36662450,.00068241,97.6729,350.7500,349.2034,10.9062,0,U,52763,999,23061,.10502726E-3,.3674E-4,0
OMNI-L2,2022-057AR,2026-07-19T03:19:52.532544,14.81442932,.00059952,97.4698,260.3485,205.8852,154.2063,0,U,52771,999,22512,.78393156E-4,.566E-5,0
STEP CUBE LAB-II,2022-065D,2026-07-19T08:12:26.457696,14.63345916,.0007284,98.2272,344.1517,287.4007,72.6398,0,U,52897,999,21620,.65463891E-4,.29E-5,0
RANDEV,2022-065E,2026-07-19T08:01:43.552704,14.63735084,.00066148,98.2256,344.5104,287.9104,72.1376,0,U,52898,999,21595,.8393093E-4,.389E-5,0
SNUGLITE-II,2022-065F,2026-07-18T22:34:41.114496,14.64397768,.00061458,98.2242,344.7224,286.5198,73.5329,0,U,52899,999,21564,.8930134E-4,.424E-5,0
MIMAN,2022-065G,2026-07-18T22:39:56.693952,14.61873573,.0006318,98.2302,342.2741,289.8751,70.1769,0,U,52900,999,21508,.52091742E-4,.213E-5,0
STARLINK-4362,2022-077A,2026-07-19T00:47:06.734112,15.05651865,.00014156,97.2858,17.2700,104.3402,255.7983,0,U,53043,999,22067,.4863811E-5,.14E-6,0
LARES-2,2022-080A,2026-07-18T18:51:23.050944,6.38965084,.00054794,70.1539,294.4914,328.1411,31.8962,0,U,53105,999,9368,0,-.2E-6,0
GREENCUBE (IO-117),2022-080E,2026-07-19T05:53:22.496064,6.42583325,.00090857,70.1403,287.0980,282.5487,77.4156,0,U,53109,999,9412,0,-.3E-7,0
STARLINK-4410,2022-084R,2026-07-19T06:00:02.000160,15.39756706,.00018388,97.5997,262.4999,76.3556,130.3268,0,U,53204,999,565,-.32658095E-1,-.1176401E-1,0
COSMOS 2558,2022-089A,2026-07-18T20:07:19.330752,15.82448103,.000422,97.2240,305.3615,222.4405,137.6539,0,U,53323,999,22282,.52342E-3,.109348E-2,0
TECMS,2022-090A,2026-07-19T06:08:14.085312,15.21248373,.00053986,97.3123,267.4532,75.2569,284.9265,0,U,53346,999,21968,.81978537E-4,.1764E-4,0
DONGPO 02,2022-098J,2026-07-19T07:45:35.679168,15.81999139,.00045886,97.5556,334.4918,207.2644,152.8383,0,U,53452,999,21986,.48602436E-3,.99337E-3,0
DONGPO 01,2022-098K,2026-07-19T07:17:45.435840,15.78824337,.00031438,97.5632,334.8914,201.0593,159.0544,0,U,53453,999,21981,.49619513E-3,.87622E-3,0
STARLINK-4400,2022-099D,2026-07-19T06:40:01.996032,15.05644147,.00017792,97.2842,317.5818,128.6964,231.4423,0,U,53468,999,21577,-.77533361E-4,-.1175E-4,0
STARLINK-4621,2022-105AE,2026-07-19T05:08:18.118176,15.05656579,.00016149,97.2849,77.5379,90.6186,269.5227,0,U,53676,999,21302,.37246751E-4,.481E-5,0
