2022-023F               
1 51951U 22023F   26200.29371840  .00005876  00000+0  23846-3 0  9995
2 51951  63.4458 164.3377 0133563 341.6222  18.0087 15.17879101242580
MERIDIAN 10             
1 52145U 22030A   26199.87196924  .00000141  00000+0  00000+0 0  9991
2 52145  62.6769 137.3726 6792946 272.8407  17.5942  2.00608966 31668
OMNI-L1                 
1 52157U 22033A   26200.16486227  .00000834  00000+0  10940-3 0  9997
2 52157  97.8388 278.7216 0005664 165.4447 194.6931 14.82851996232193
ENMAP                   
1 52159U 22033C   26200.25364760  .00000075  00000+0  18634-4 0  9992
2 52159  97.9786 282.0466 0001238  84.5056 275.6294 14.74941877231384
ARCSAT-1                
1 52161U 22033E   26200.19306715  .00006893  00000+0  10680-3 0  9990
2 52161  97.2747 292.9590 0006308  86.5548 273.6427 15.54338252240670
GLOBAL-18               
1 52196U 22034B   26200.10825291  .00013531  00000+0  26858-3 0  9996
2 52196  52.9812 103.9534 0004639  35.1635 324.9676 15.47332521241908
GAOFEN-3 03             
1 52200U 22035A   26200.28228730  .00000094  00000+0  41796-4 0  9996
2 52200  98.4067 208.3977 0001774  86.2213 273.9180 14.42218669225475
DAQI-1                  
1 52257U 22039A   26200.27008641  .00000358  00000+0  88231-4 0  9996
2 52257  98.1487 138.4601 0004258 136.9943 223.1589 14.57694705226612
BRO-6                   
1 52422U 22047AE  26200.18837035  .00025263  00000+0  40927-3 0  9997
2 52422  97.3381 291.9097 0002854 286.6860  73.4079 15.52776336236118
JILIN-1 GAOFEN 3D27     
1 52444U 22048B   26200.27301921  .00126312  00000+0  55719-3 0  9994
2 52444  97.5728 317.3399 0005717 234.8088 125.2646 15.84137399234541
JILIN-1 GAOFEN 3D28     
1 52445U 22048C   26200.25322694  .00184558  14480-4  63540-3 0  9992
2 52445  97.5677 317.6499 0005498 238.1599 121.9139 15.89582354234606
VIGORIDE-3              
1 52760U 22057AE  26200.25150785  .00002732  00000+0  10418-3 0  9999
2 52760  97.6647 341.0896 0008543  21.6548 338.5051 15.27572209230053
ION SCV-006             
1 52761U 22057AF  26199.95208784  .00006790  00000+0  14067-3 0  9999
2 52761  97.6141 350.1211 0016430   4.0680 356.0699 15.45972712231025
SHERPA-AC1              
1 52763U 22057AH  26200.17391783  .00003674  00000+0  10503-3 0  9999
2 52763  97.6729 350.7500 0006824 349.2034  10.9062 15.36662450230618
OMNI-L2                 
1 52771U 22057AR  26200.13880246  .00000566  00000+0  78393-4 0  9990
2 52771  97.4698 260.3485 0005995 205.8852 154.2063 14.81442932225124
STEP CUBE LAB-II        
1 52897U 22065D   26200.34197289  .00000290  00000+0  65464-4 0  9998
2 52897  98.2272 344.1517 0007284 287.4007  72.6398 14.63345916216205
RANDEV                  
1 52898U 22065E   26200.33453186  .00000389  00000+0  83931-4 0  9997
2 52898  98.2256 344.5104 0006614 287.9104  72.1376 14.63735084215954
SNUGLITE-II             
1 52899U 22065F   26199.94075364  .00000424  00000+0  89301-4 0  9997
2 52899  98.2242 344.7224 0006145 286.5198  73.5329 14.64397768215645
MIMAN                   
1 52900U 22065G   26199.94440618  .00000213  00000+0  52092-4 0  9991
2 52900  98.2302 342.2741 0006318 289.8751  70.1769 14.61873573215084
STARLINK-4362           
1 53043U 22077A   26200.03271683  .00000014  00000+0  48638-5 0  9991
2 53043  97.2858  17.2700 0001415 104.3402 255.7983 15.05651865220676
LARES-2                 
1 53105U 22080A   26199.78568346 -.00000020  00000+0  00000+0 0  9991
2 53105  70.1539 294.4914 0005479 328.1411  31.8962  6.38965084 93683
GREENCUBE (IO-117)      
1 53109U 22080E   26200.24539926 -.00000003  00000+0  00000+0 0  9992
2 53109  70.1403 287.0980 0009085 282.5487  77.4156  6.42583325 94121
STARLINK-4410           
1 53204U 22084R   26200.25002315 -.01176401  00000+0 -32658-1 0  9994
2 53204  97.5997 262.4999 0001838  76.3556 130.3268 15.39756706  5653
COSMOS 2558             
1 53323U 22089A   26199.83841818  .00109348  00000+0  52342-3 0  9998
2 53323  97.2240 305.3615 0004220 222.4405 137.6539 15.82448103222828
TECMS                   
1 53346U 22090A   26200.25571858  .00001764  00000+0  81979-4 0  9990
2 53346  97.3123 267.4532 0005398  75.2569 284.9265 15.21248373219684
DONGPO 02               
1 53452U 22098J   26200.32332962  .00099337  00000+0  48602-3 0  9993
2 53452  97.5556 334.4918 0004588 207.2644 152.8383 15.81999139219861
DONGPO 01               
1 53453U 22098K   26200.30399810  .00087622  00000+0  49620-3 0  9992
2 53453  97.5632 334.8914 0003143 201.0593 159.0544 15.78824337219814
STARLINK-4400           
1 53468U 22099D   26200.27780088 -.00001175  00000+0 -77533-4 0  9992
2 53468  97.2842 317.5818 0001779 128.6964 231.4423 15.05644147215771
STARLINK-4621           
1 53676U 22105AE  26200.21409859  .00000481  00000+0  37247-4 0  9994
2 53676  97.2849  77.5379 0001614  90.6186 269.5227 15.05656579213028
